start=new Date('2023-02-12T00:00:00.000Z').valueOf();
sats=[{"ECCENTRICITY":"0.00010400","SEMIMAJOR_AXIS":"6917.856","TLE_LINE1":"1 52468U 22049T   23042.74219122 -.00000091  00000-0  12376-4 0  9995","CLASSIFICATION_TYPE":"U","NORAD_CAT_ID":"52468","CENTER_NAME":"EARTH","ELEMENT_SET_NO":"999","EPHEMERIS_TYPE":"0","RCS_SIZE":"LARGE","MEAN_ANOMALY":"265.8732","REF_FRAME":"TEME","REV_AT_EPOCH":"4287","OBJECT_TYPE":"PAYLOAD","FILE":"3786577","INCLINATION":"53.2159","BSTAR":"0.00001237600000","TIME_SYSTEM":"UTC","MEAN_MOTION_DDOT":"0.0000000000000","MEAN_MOTION_DOT":"-0.00000091","LAUNCH_DATE":"2022-05-06","APOAPSIS":"540.441","TLE_LINE2":"2 52468  53.2159  55.7446 0001040  94.2379 265.8732 15.08847843 42874","OBJECT_ID":"2022-049T","COUNTRY_CODE":"US","RA_OF_ASC_NODE":"55.7446","ARG_OF_PERICENTER":"94.2379","PERIAPSIS":"539.002","SITE":"AFETR","GP_ID":"225186002","DECAY_DATE":null,"OBJECT_NAME":"STARLINK-3864","PERIOD":"95.437","MEAN_ELEMENT_THEORY":"SGP4","MEAN_MOTION":"15.08847843","EPOCH":"2023-02-11T17:48:45.321408"},{"PERIAPSIS":"538.927","SITE":"AFETR","DECAY_DATE":null,"GP_ID":"225184251","MEAN_MOTION_DDOT":"0.0000000000000","TIME_SYSTEM":"UTC","MEAN_MOTION_DOT":"0.00003286","LAUNCH_DATE":"2022-05-06","TLE_LINE2":"2 52469  53.2176  55.7105 0001185  95.7720 264.3407 15.08839556 42877","APOAPSIS":"540.567","OBJECT_ID":"2022-049U","COUNTRY_CODE":"US","ARG_OF_PERICENTER":"95.7720","RA_OF_ASC_NODE":"55.7105","EPOCH":"2023-02-11T17:59:21.792192","OBJECT_NAME":"STARLINK-3828","PERIOD":"95.438","MEAN_ELEMENT_THEORY":"SGP4","MEAN_MOTION":"15.08839556","CENTER_NAME":"EARTH","ELEMENT_SET_NO":"999","EPHEMERIS_TYPE":"0","RCS_SIZE":"LARGE","MEAN_ANOMALY":"264.3407","ECCENTRICITY":"0.00011850","SEMIMAJOR_AXIS":"6917.882","CLASSIFICATION_TYPE":"U","TLE_LINE1":"1 52469U 22049U   23042.74955778  .00003286  00000-0  22446-3 0  9996","NORAD_CAT_ID":"52469","OBJECT_TYPE":"PAYLOAD","FILE":"3786577","INCLINATION":"53.2176","BSTAR":"0.00022446000000","REF_FRAME":"TEME","REV_AT_EPOCH":"4287"},{"TLE_LINE1":"1 52470U 22049V   23042.73483247  .00002542  00000-0  17771-3 0  9993","CLASSIFICATION_TYPE":"U","NORAD_CAT_ID":"52470","ECCENTRICITY":"0.00016510","SEMIMAJOR_AXIS":"6917.866","RCS_SIZE":"LARGE","EPHEMERIS_TYPE":"0","MEAN_ANOMALY":"263.0192","ELEMENT_SET_NO":"999","CENTER_NAME":"EARTH","REV_AT_EPOCH":"4287","REF_FRAME":"TEME","INCLINATION":"53.2166","BSTAR":"0.00017771000000","OBJECT_TYPE":"PAYLOAD","FILE":"3786577","OBJECT_ID":"2022-049V","COUNTRY_CODE":"US","TLE_LINE2":"2 52470  53.2166  55.7786 0001651  97.0988 263.0192 15.08844850 42872","APOAPSIS":"540.873","RA_OF_ASC_NODE":"55.7786","ARG_OF_PERICENTER":"97.0988","MEAN_MOTION_DDOT":"0.0000000000000","TIME_SYSTEM":"UTC","MEAN_MOTION_DOT":"0.00002542","LAUNCH_DATE":"2022-05-06","SITE":"AFETR","GP_ID":"225184501","DECAY_DATE":null,"PERIAPSIS":"538.588","MEAN_ELEMENT_THEORY":"SGP4","MEAN_MOTION":"15.08844850","PERIOD":"95.437","OBJECT_NAME":"STARLINK-3859","EPOCH":"2023-02-11T17:38:09.525408"},{"TLE_LINE2":"2 52471  53.2173  55.7243 0001230 108.1712 251.9414 15.08845436 42875","APOAPSIS":"540.580","COUNTRY_CODE":"US","OBJECT_ID":"2022-049W","RA_OF_ASC_NODE":"55.7243","ARG_OF_PERICENTER":"108.1712","MEAN_MOTION_DDOT":"0.0000000000000","TIME_SYSTEM":"UTC","MEAN_MOTION_DOT":"0.00002894","LAUNCH_DATE":"2022-05-06","SITE":"AFETR","GP_ID":"225185752","DECAY_DATE":null,"PERIAPSIS":"538.878","MEAN_ELEMENT_THEORY":"SGP4","MEAN_MOTION":"15.08845436","OBJECT_NAME":"STARLINK-3862","PERIOD":"95.437","EPOCH":"2023-02-11T17:54:03.294144","TLE_LINE1":"1 52471U 22049W   23042.74587146  .00002894  00000-0  19984-3 0  9996","NORAD_CAT_ID":"52471","CLASSIFICATION_TYPE":"U","ECCENTRICITY":"0.00012300","SEMIMAJOR_AXIS":"6917.864","EPHEMERIS_TYPE":"0","RCS_SIZE":"LARGE","MEAN_ANOMALY":"251.9414","CENTER_NAME":"EARTH","ELEMENT_SET_NO":"999","REF_FRAME":"TEME","REV_AT_EPOCH":"4287","INCLINATION":"53.2173","BSTAR":"0.00019984000000","OBJECT_TYPE":"PAYLOAD","FILE":"3786577"},{"REV_AT_EPOCH":"4307","REF_FRAME":"TEME","INCLINATION":"53.2167","BSTAR":"0.00046042000000","OBJECT_TYPE":"PAYLOAD","FILE":"3786543","TLE_LINE1":"1 52472U 22049X   23042.99611259  .00007049  00000-0  46042-3 0  9999","CLASSIFICATION_TYPE":"U","NORAD_CAT_ID":"52472","ECCENTRICITY":"0.00018660","SEMIMAJOR_AXIS":"6917.850","RCS_SIZE":"LARGE","EPHEMERIS_TYPE":"0","MEAN_ANOMALY":"260.1775","ELEMENT_SET_NO":"999","CENTER_NAME":"EARTH","MEAN_ELEMENT_THEORY":"SGP4","MEAN_MOTION":"15.08849826","PERIOD":"95.437","OBJECT_NAME":"STARLINK-3881","EPOCH":"2023-02-11T23:54:24.127776","COUNTRY_CODE":"US","OBJECT_ID":"2022-049X","APOAPSIS":"541.006","TLE_LINE2":"2 52472  53.2167  54.6099 0001866  99.9428 260.1775 15.08849826 43074","RA_OF_ASC_NODE":"54.6099","ARG_OF_PERICENTER":"99.9428","MEAN_MOTION_DDOT":"0.0000000000000","TIME_SYSTEM":"UTC","LAUNCH_DATE":"2022-05-06","MEAN_MOTION_DOT":"0.00007049","SITE":"AFETR","GP_ID":"225161181","DECAY_DATE":null,"PERIAPSIS":"538.424"},{"BSTAR":"0.00072121000000","INCLINATION":"53.2151","FILE":"3786577","OBJECT_TYPE":"PAYLOAD","REF_FRAME":"TEME","REV_AT_EPOCH":"4287","MEAN_ANOMALY":"291.0007","EPHEMERIS_TYPE":"0","RCS_SIZE":"LARGE","CENTER_NAME":"EARTH","ELEMENT_SET_NO":"999","CLASSIFICATION_TYPE":"U","TLE_LINE1":"1 52473U 22049Y   23042.73851256  .00011215  00000-0  72121-3 0  9992","NORAD_CAT_ID":"52473","SEMIMAJOR_AXIS":"6917.814","ECCENTRICITY":"0.00011730","EPOCH":"2023-02-11T17:43:27.485184","MEAN_MOTION":"15.08861561","MEAN_ELEMENT_THEORY":"SGP4","OBJECT_NAME":"STARLINK-3879","PERIOD":"95.436","GP_ID":"225184752","DECAY_DATE":null,"SITE":"AFETR","PERIAPSIS":"538.868","RA_OF_ASC_NODE":"55.7615","ARG_OF_PERICENTER":"69.1111","TLE_LINE2":"2 52473  53.2151  55.7615 0001173  69.1111 291.0007 15.08861561 42871","APOAPSIS":"540.491","OBJECT_ID":"2022-049Y","COUNTRY_CODE":"US","MEAN_MOTION_DOT":"0.00011215","LAUNCH_DATE":"2022-05-06","MEAN_MOTION_DDOT":"0.0000000000000","TIME_SYSTEM":"UTC"},{"ELEMENT_SET_NO":"999","CENTER_NAME":"EARTH","RCS_SIZE":"LARGE","EPHEMERIS_TYPE":"0","MEAN_ANOMALY":"255.6949","ECCENTRICITY":"0.00011020","SEMIMAJOR_AXIS":"6917.842","CLASSIFICATION_TYPE":"U","TLE_LINE1":"1 52474U 22049Z   23042.35302825  .00004463  00000-0  29822-3 0  9991","NORAD_CAT_ID":"52474","OBJECT_TYPE":"PAYLOAD","FILE":"3786144","INCLINATION":"53.2178","BSTAR":"0.00029822000000","REV_AT_EPOCH":"4295","REF_FRAME":"TEME","PERIAPSIS":"538.944","SITE":"AFETR","DECAY_DATE":null,"GP_ID":"225121395","TIME_SYSTEM":"UTC","MEAN_MOTION_DDOT":"0.0000000000000","LAUNCH_DATE":"2022-05-06","MEAN_MOTION_DOT":"0.00004463","COUNTRY_CODE":"US","OBJECT_ID":"2022-049Z","TLE_LINE2":"2 52474  53.2178  47.4867 0001102 104.4165 255.6949 15.08852638 42957","APOAPSIS":"540.469","ARG_OF_PERICENTER":"104.4165","RA_OF_ASC_NODE":"47.4867","EPOCH":"2023-02-11T08:28:21.640800","PERIOD":"95.437","OBJECT_NAME":"STARLINK-3855","MEAN_ELEMENT_THEORY":"SGP4","MEAN_MOTION":"15.08852638"},{"REV_AT_EPOCH":"4287","REF_FRAME":"TEME","OBJECT_TYPE":"PAYLOAD","FILE":"3786577","INCLINATION":"53.2159","BSTAR":"0.00179000000000","ECCENTRICITY":"0.00023590","SEMIMAJOR_AXIS":"6917.845","TLE_LINE1":"1 52475U 22049AA  23042.73211052  .00028324  00000-0  17900-2 0  9990","CLASSIFICATION_TYPE":"U","NORAD_CAT_ID":"52475","ELEMENT_SET_NO":"999","CENTER_NAME":"EARTH","RCS_SIZE":"LARGE","EPHEMERIS_TYPE":"0","MEAN_ANOMALY":"287.1468","PERIOD":"95.437","OBJECT_NAME":"STARLINK-3882","MEAN_ELEMENT_THEORY":"SGP4","MEAN_MOTION":"15.08851519","EPOCH":"2023-02-11T17:34:14.348928","MEAN_MOTION_DDOT":"0.0000000000000","TIME_SYSTEM":"UTC","LAUNCH_DATE":"2022-05-06","MEAN_MOTION_DOT":"0.00028324","OBJECT_ID":"2022-049AA","COUNTRY_CODE":"US","TLE_LINE2":"2 52475  53.2159  55.7833 0002359  72.9782 287.1468 15.08851519 42875","APOAPSIS":"541.342","RA_OF_ASC_NODE":"55.7833","ARG_OF_PERICENTER":"72.9782","PERIAPSIS":"538.078","SITE":"AFETR","DECAY_DATE":null,"GP_ID":"225185252"},{"NORAD_CAT_ID":"52476","TLE_LINE1":"1 52476U 22049AB  23042.34934872  .00010868  00000-0  69943-3 0  9999","CLASSIFICATION_TYPE":"U","SEMIMAJOR_AXIS":"6917.812","ECCENTRICITY":"0.00013750","MEAN_ANOMALY":"247.0442","RCS_SIZE":"LARGE","EPHEMERIS_TYPE":"0","ELEMENT_SET_NO":"999","CENTER_NAME":"EARTH","REV_AT_EPOCH":"4419","REF_FRAME":"TEME","BSTAR":"0.00069943000000","INCLINATION":"53.2176","FILE":"3786144","OBJECT_TYPE":"PAYLOAD","ARG_OF_PERICENTER":"113.0695","RA_OF_ASC_NODE":"47.5041","OBJECT_ID":"2022-049AB","COUNTRY_CODE":"US","APOAPSIS":"540.628","TLE_LINE2":"2 52476  53.2176  47.5041 0001375 113.0695 247.0442 15.08862386 44190","LAUNCH_DATE":"2022-05-06","MEAN_MOTION_DOT":"0.00010868","MEAN_MOTION_DDOT":"0.0000000000000","TIME_SYSTEM":"UTC","GP_ID":"225122876","DECAY_DATE":null,"SITE":"AFETR","PERIAPSIS":"538.726","MEAN_MOTION":"15.08862386","MEAN_ELEMENT_THEORY":"SGP4","PERIOD":"95.436","OBJECT_NAME":"STARLINK-3835","EPOCH":"2023-02-11T08:23:03.729408"},{"EPOCH":"2023-02-11T06:58:16.760064","MEAN_MOTION":"15.08858128","MEAN_ELEMENT_THEORY":"SGP4","PERIOD":"95.436","OBJECT_NAME":"STARLINK-3860","DECAY_DATE":null,"GP_ID":"225184252","SITE":"AFETR","PERIAPSIS":"538.623","ARG_OF_PERICENTER":"91.9167","RA_OF_ASC_NODE":"47.7734","COUNTRY_CODE":"US","OBJECT_ID":"2022-049AC","APOAPSIS":"540.757","TLE_LINE2":"2 52477  53.2181  47.7734 0001543  91.9167 268.2002 15.08858128 44188","MEAN_MOTION_DOT":"0.00009756","LAUNCH_DATE":"2022-05-06","MEAN_MOTION_DDOT":"0.0000000000000","TIME_SYSTEM":"UTC","BSTAR":"0.00062988000000","INCLINATION":"53.2181","FILE":"3786577","OBJECT_TYPE":"PAYLOAD","REV_AT_EPOCH":"4418","REF_FRAME":"TEME","MEAN_ANOMALY":"268.2002","RCS_SIZE":"LARGE","EPHEMERIS_TYPE":"0","ELEMENT_SET_NO":"999","CENTER_NAME":"EARTH","TLE_LINE1":"1 52477U 22049AC  23042.29047176  .00009756  00000-0  62988-3 0  9992","NORAD_CAT_ID":"52477","CLASSIFICATION_TYPE":"U","SEMIMAJOR_AXIS":"6917.825","ECCENTRICITY":"0.00015430"}];
